OBJECT_NAME,OBJECT_ID,EPOCH,MEAN_MOTION,ECCENTRICITY,INCLINATION,RA_OF_ASC_NODE,ARG_OF_PERICENTER,MEAN_ANOMALY,EPHEMERIS_TYPE,CLASSIFICATION_TYPE,NORAD_CAT_ID,ELEMENT_SET_NO,REV_AT_EPOCH,BSTAR,MEAN_MOTION_DOT,MEAN_MOTION_DDOT
YAOGAN-35 04B,2022-100C,2025-10-03T07:40:52.109184,15.27977562,.0004903,34.9973,224.9262,110.5529,249.5714,0,U,53524,999,6581,.87325242E-3,.24493E-3,0
YAOGAN-35 04C,2022-100E,2025-10-03T14:03:18.249696,15.17075090,.00117411,34.9950,241.5616,267.3128,92.6241,0,U,53526,999,17390,.74154808E-3,.15047E-3,0
STARLINK-4511,2022-101A,2025-10-03T16:00:03.000096,15.59937342,.00022978,53.2061,13.2462,22.8845,17.9692,0,U,53527,999,593,.38039781E-2,.324756E-2,0
STARLINK-4503,2022-101B,2025-10-03T15:47:39.841728,15.08836764,.00015316,53.2155,59.0608,95.6839,264.4328,0,U,53528,999,17245,.1028864E-3,.135E-4,0
STARLINK-4478,2022-101C,2025-10-03T09:15:31.664160,15.08835973,.00013679,53.2163,60.2927,87.1712,272.9436,0,U,53529,999,17241,-.7059925E-5,-.4E-5,0
STARLINK-4482,2022-101D,2025-10-03T09:36:45.842112,15.08822016,.000149,53.2181,60.4416,82.0314,278.0848,0,U,53530,999,17241,-.82536651E-4,-.1601E-4,0
STARLINK-4487,2022-101E,2025-10-02T18:51:46.225152,15.08851251,.00011623,53.2157,62.9747,100.8171,259.2952,0,U,53531,999,17232,.5453E-3,.8404E-4,0
STARLINK-4483,2022-101F,2025-10-03T09:57:54.857664,15.08837937,.0001598,53.2164,60.1510,86.1165,274.0010,0,U,53532,999,17242,-.65467553E-4,-.133E-4,0
STARLINK-4493,2022-101G,2025-10-03T09:52:36.818400,15.08837693,.00013681,53.2171,60.1590,93.2785,266.8364,0,U,53533,999,17242,.99383869E-4,.1294E-4,0
STARLINK-4138,2022-101J,2025-10-03T09:47:18.976992,15.08833834,.00012256,53.2164,60.1859,85.2879,274.8253,0,U,53535,999,17242,.63353844E-4,.72E-5,0
STARLINK-4053,2022-101K,2025-10-03T09:11:32.344800,15.08831397,.00012577,53.2175,50.2182,103.9335,256.1797,0,U,53536,999,17255,.12414828E-3,.1688E-4,0
STARLINK-4120,2022-101L,2025-10-03T09:48:41.369760,15.08837580,.00013253,53.2170,60.1534,88.5669,271.5475,0,U,53537,999,17242,.87592081E-4,.1106E-4,0
STARLINK-4118,2022-101M,2025-10-03T15:38:19.906656,15.08881416,.00010473,53.2164,49.0903,85.9043,274.2069,0,U,53538,999,17328,.43691692E-3,.668E-4,0
STARLINK-4123,2022-101N,2025-10-03T09:42:01.164960,15.08839851,.00012974,53.2157,60.2007,90.8814,269.2327,0,U,53539,999,17242,.10057372E-3,.1313E-4,0
STARLINK-4486,2022-101P,2025-10-02T16:31:27.202656,15.08817424,.00011992,53.2161,53.7730,83.3640,276.7489,0,U,53540,999,17313,-.17371325E-3,-.305E-4,0
STARLINK-4485,2022-101Q,2025-10-03T15:52:57.722016,15.08840814,.00011034,53.2173,59.0442,89.0356,271.0763,0,U,53541,999,17315,.5465499E-5,-.201E-5,0
STARLINK-4489,2022-101R,2025-10-03T15:22:29.320896,15.08846823,.00013205,53.2164,49.1413,90.3518,269.7625,0,U,53542,999,17328,-.12950104E-3,-.2349E-4,0
STARLINK-4297,2022-101S,2025-10-03T15:43:42.271968,15.08833520,.00014901,53.2182,49.1439,87.4060,272.7103,0,U,53543,999,17328,.8009299E-5,-.161E-5,0
STARLINK-4303,2022-101T,2025-10-03T15:11:53.756448,15.08833332,.00012116,53.2183,49.1727,89.6821,270.4310,0,U,53544,999,17326,.75880216E-4,.92E-5,0
STARLINK-4475,2022-101U,2025-10-03T09:06:14.871456,15.08826849,.0001474,53.2177,50.3139,86.1713,273.9447,0,U,53545,999,17324,-.52036614E-4,-.1116E-4,0
STARLINK-4477,2022-101V,2025-10-03T09:12:47.910240,15.08832413,.00015474,53.2191,39.8234,102.1862,257.9304,0,U,53546,999,17270,.50741755E-4,.52E-5,0
STARLINK-4474,2022-101W,2025-10-03T15:17:11.987520,15.08833400,.00010753,53.2174,49.1576,92.7668,267.3447,0,U,53547,999,17326,.48130669E-4,.478E-5,0
STARLINK-4513,2022-101X,2025-10-03T10:09:50.669568,15.08841270,.00012381,53.2171,50.1131,83.4582,276.6551,0,U,53548,999,17256,.36605782E-4,.295E-5,0
STARLINK-4518,2022-101Z,2025-10-03T08:29:08.023776,15.08852850,.00013392,53.2163,50.4279,89.9612,270.1534,0,U,53550,999,17321,.44359324E-3,.6781E-4,0
STARLINK-4514,2022-101AA,2025-10-03T15:01:18.120288,15.08856700,.00015743,53.2162,49.2069,89.4529,270.6644,0,U,53551,999,17325,.91306498E-3,.1428E-3,0
STARLINK-4495,2022-101AB,2025-10-03T09:53:56.904288,15.08825896,.00013996,53.2176,50.1637,89.4576,270.6577,0,U,53552,999,17321,.66663639E-4,.773E-5,0
STARLINK-4501,2022-101AC,2025-10-03T09:43:19.415712,15.08836783,.00013219,53.2181,50.0700,87.3054,272.8090,0,U,53553,999,17322,.46912814E-4,.459E-5,0
STARLINK-4506,2022-101AD,2025-10-03T09:44:43.723968,15.08830556,.00013064,53.2178,50.2024,87.0684,273.0458,0,U,53554,999,17256,.87998284E-4,.1113E-4,0
STARLINK-4504,2022-101AE,2025-10-03T08:23:53.712672,15.08815216,.00013086,53.2196,50.4490,103.0731,257.0408,0,U,53555,999,17321,-.72028265E-4,-.1433E-4,0
STARLINK-4505,2022-101AF,2025-10-03T09:32:42.024768,15.08849800,.00011106,53.2180,50.2320,92.5743,267.5376,0,U,53556,999,17256,.43684267E-3,.6673E-4,0
