YAOGAN-35 04B           
1 53524U 22100C   25276.32004756  .00024493  00000+0  87325-3 0  9992
2 53524  34.9973 224.9262 0004903 110.5529 249.5714 15.27977562 65815
YAOGAN-35 04C           
1 53526U 22100E   25276.58562789  .00015047  00000+0  74155-3 0  9999
2 53526  34.9950 241.5616 0011741 267.3128  92.6241 15.17075090173900
STARLINK-4511           
1 53527U 22101A   25276.66670139  .00324756  00000+0  38040-2 0  9991
2 53527  53.2061  13.2462 0002297  22.8845  17.9692 15.59937342  5937
STARLINK-4503           
1 53528U 22101B   25276.65810002  .00001350  00000+0  10289-3 0  9994
2 53528  53.2155  59.0608 0001531  95.6839 264.4328 15.08836764172450
STARLINK-4478           
1 53529U 22101C   25276.38578315 -.00000400  00000+0 -70599-5 0  9992
2 53529  53.2163  60.2927 0001367  87.1712 272.9436 15.08835973172412
STARLINK-4482           
1 53530U 22101D   25276.40053058 -.00001601  00000+0 -82537-4 0  9997
2 53530  53.2181  60.4416 0001490  82.0314 278.0848 15.08822016172416
STARLINK-4487           
1 53531U 22101E   25275.78595168  .00008404  00000+0  54530-3 0  9998
2 53531  53.2157  62.9747 0001162 100.8171 259.2952 15.08851251172320
STARLINK-4483           
1 53532U 22101F   25276.41521826 -.00001330  00000+0 -65468-4 0  9996
2 53532  53.2164  60.1510 0001598  86.1165 274.0010 15.08837937172425
STARLINK-4493           
1 53533U 22101G   25276.41153725  .00001294  00000+0  99384-4 0  9997
2 53533  53.2171  60.1590 0001368  93.2785 266.8364 15.08837693172424
STARLINK-4138           
1 53535U 22101J   25276.40785853  .00000720  00000+0  63354-4 0  9992
2 53535  53.2164  60.1859 0001225  85.2879 274.8253 15.08833834172422
STARLINK-4053           
1 53536U 22101K   25276.38301325  .00001688  00000+0  12415-3 0  9993
2 53536  53.2175  50.2182 0001257 103.9335 256.1797 15.08831397172556
STARLINK-4120           
1 53537U 22101L   25276.40881215  .00001106  00000+0  87592-4 0  9992
2 53537  53.2170  60.1534 0001325  88.5669 271.5475 15.08837580172427
STARLINK-4118           
1 53538U 22101M   25276.65161929  .00006680  00000+0  43692-3 0  9997
2 53538  53.2164  49.0903 0001047  85.9043 274.2069 15.08881416173286
STARLINK-4123           
1 53539U 22101N   25276.40418015  .00001313  00000+0  10057-3 0  9999
2 53539  53.2157  60.2007 0001297  90.8814 269.2327 15.08839851172429
STARLINK-4486           
1 53540U 22101P   25275.68850929 -.00003050  00000+0 -17371-3 0  9992
2 53540  53.2161  53.7730 0001199  83.3640 276.7489 15.08817424173134
STARLINK-4485           
1 53541U 22101Q   25276.66177919 -.00000201  00000+0  54655-5 0  9995
2 53541  53.2173  59.0442 0001103  89.0356 271.0763 15.08840814173153
STARLINK-4489           
1 53542U 22101R   25276.64061714 -.00002349  00000+0 -12950-3 0  9995
2 53542  53.2164  49.1413 0001320  90.3518 269.7625 15.08846823173289
STARLINK-4297           
1 53543U 22101S   25276.65535037 -.00000161  00000+0  80093-5 0  9995
2 53543  53.2182  49.1439 0001490  87.4060 272.7103 15.08833520173280
STARLINK-4303           
1 53544U 22101T   25276.63326107  .00000920  00000+0  75880-4 0  9999
2 53544  53.2183  49.1727 0001211  89.6821 270.4310 15.08833332173266
STARLINK-4475           
1 53545U 22101U   25276.37933879 -.00001116  00000+0 -52037-4 0  9990
2 53545  53.2177  50.3139 0001474  86.1713 273.9447 15.08826849173246
STARLINK-4477           
1 53546U 22101V   25276.38388785  .00000520  00000+0  50742-4 0  9999
2 53546  53.2191  39.8234 0001547 102.1862 257.9304 15.08832413172704
STARLINK-4474           
1 53547U 22101W   25276.63694430  .00000478  00000+0  48131-4 0  9996
2 53547  53.2174  49.1576 0001075  92.7668 267.3447 15.08833400173265
STARLINK-4513           
1 53548U 22101X   25276.42350312  .00000295  00000+0  36606-4 0  9993
2 53548  53.2171  50.1131 0001238  83.4582 276.6551 15.08841270172560
STARLINK-4518           
1 53550U 22101Z   25276.35356509  .00006781  00000+0  44359-3 0  9991
2 53550  53.2163  50.4279 0001339  89.9612 270.1534 15.08852850173216
STARLINK-4514           
1 53551U 22101AA  25276.62590417  .00014280  00000+0  91306-3 0  9997
2 53551  53.2162  49.2069 0001574  89.4529 270.6644 15.08856700173251
STARLINK-4495           
1 53552U 22101AB  25276.41246417  .00000773  00000+0  66664-4 0  9995
2 53552  53.2176  50.1637 0001399  89.4576 270.6577 15.08825896173219
STARLINK-4501           
1 53553U 22101AC  25276.40508583  .00000459  00000+0  46913-4 0  9996
2 53553  53.2181  50.0700 0001321  87.3054 272.8090 15.08836783173221
STARLINK-4506           
1 53554U 22101AD  25276.40606162  .00001113  00000+0  87998-4 0  9995
2 53554  53.2178  50.2024 0001306  87.0684 273.0458 15.08830556172567
STARLINK-4504           
1 53555U 22101AE  25276.34992723 -.00001433  00000+0 -72028-4 0  9995
2 53555  53.2196  50.4490 0001308 103.0731 257.0408 15.08815216173217
STARLINK-4505           
1 53556U 22101AF  25276.39770862  .00006673  00000+0  43684-3 0  9993
2 53556  53.2180  50.2320 0001110  92.5743 267.5376 15.08849800172560
